{"spkid": "50825011", "covariance": {"epoch": "2458416.5", "data": [["1.232757330465529E-14", "-3.028994618604556E-14", "5.713506925024806E-13", "-5.278235766349522E-12", "2.647324548982306E-12", "-9.635011358199272E-13"], ["-3.028994618604556E-14", "7.94397227836868E-14", "-9.576367695978491E-13", "1.395914075446414E-11", "-6.39648197990083E-12", "2.622916756271439E-12"], ["5.713506925024806E-13", "-9.576367695978491E-13", "1.39039456279254E-9", "-8.17699086307752E-10", "1.517756401228876E-9", "-1.876142531715458E-10"], ["-5.278235766349522E-12", "1.395914075446414E-11", "-8.17699086307752E-10", "4.583508475609907E-9", "-3.500988890935091E-9", "6.759820192832517E-10"], ["2.647324548982306E-12", "-6.39648197990083E-12", "1.517756401228876E-9", "-3.500988890935091E-9", "3.687651941262977E-9", "-4.842430392698131E-10"], ["-9.635011358199272E-13", "2.622916756271439E-12", "-1.876142531715458E-10", "6.759820192832517E-10", "-4.842430392698131E-10", "1.761279377849051E-10"]], "elements": [{"label": "e", "units": null, "title": "eccentricity", "value": ".3736532291080308", "sigma": 1.11029605532287e-07, "name": "e"}, {"value": "1.04353455180645", "title": "perihelion distance", "units": "au", "name": "q", "sigma": 2.81850532700733e-07, "label": "q"}, {"name": "tp", "sigma": 3.72879948883356e-05, "title": "time of perihelion passage", "value": "2458278.459384448591", "units": "TDB", "label": "tp"}, {"sigma": 6.77016135377135e-05, "name": "om", "units": "deg", "title": "longitude of the ascending node", "value": "107.3008383334524", "label": "node"}, {"label": "peri", "units": "deg", "title": "argument of perihelion", "value": "171.7071901287437", "name": "w", "sigma": 6.07260400591293e-05}, {"label": "i", "units": "deg", "title": "inclination", "value": "12.12832482194524", "sigma": 1.32713201221621e-05, "name": "i"}], "labels": ["e", "q", "tp", "node", "peri", "i"]}, "elements": [{"label": "e", "title": "eccentricity", "value": ".3735888018287478", "units": null, "sigma": "1.1151E-7", "name": "e"}, {"label": "a", "sigma": "1.7987E-7", "name": "a", "units": "au", "title": "semi-major axis", "value": "1.666312653777642"}, {"units": "au", "value": "1.043796905980771", "title": "perihelion distance", "sigma": "2.8273E-7", "name": "q", "label": "q"}, {"label": "i", "units": "deg", "title": "inclination; angle with respect to x-y ecliptic plane", "value": "12.13020067929515", "sigma": "1.3284E-5", "name": "i"}, {"units": "deg", "title": "longitude of the ascending node", "value": "107.2667863072446", "sigma": "6.7688E-5", "name": "om", "label": "node"}, {"label": "peri", "name": "w", "sigma": "6.0742E-5", "units": "deg", "value": "171.8138622239", "title": "argument of perihelion"}, {"title": "mean anomaly", "value": "259.0241177096065", "units": "deg", "sigma": ".00021659", "name": "ma", "label": "M"}, {"label": "tp", "title": "time of perihelion passage", "value": "2461420.867893947225", "units": "TDB", "sigma": ".00050826", "name": "tp"}, {"sigma": ".00012721", "name": "per", "title": "sidereal orbital period", "value": "785.657327487878", "units": "d", "label": "period"}, {"name": "n", "sigma": "7.4192E-8", "title": "mean motion", "value": ".4582150352381897", "units": "deg/d", "label": "n"}, {"title": "aphelion distance", "value": "2.288828401574512", "units": "au", "name": "ad", "sigma": "2.4707E-7", "label": "Q"}], "epoch": "2461200.5"}